start=new Date('2021-10-30T00:00:00.000Z').valueOf();
sats=[{"ARG_OF_PERICENTER":"86.9187","MEAN_MOTION_DOT":"0.00001454","TLE_LINE1":"1 47643U 21012Z   21302.49296851  .00001454  00000-0  11649-3 0  9990","COUNTRY_CODE":"US","SITE":"AFETR","EPHEMERIS_TYPE":"0","TLE_LINE2":"2 47643  53.0549 359.2537 0001269  86.9187 273.1947 15.06400113 40281","RA_OF_ASC_NODE":"359.2537","ELEMENT_SET_NO":"999","SEMIMAJOR_AXIS":"6925.348","REV_AT_EPOCH":"4028","CLASSIFICATION_TYPE":"U","EPOCH":"2021-10-29T11:49:52.479264","PERIOD":"95.592","DECAY_DATE":null,"BSTAR":"0.00011649000000","CENTER_NAME":"EARTH","NORAD_CAT_ID":"47643","RCS_SIZE":"LARGE","REF_FRAME":"TEME","MEAN_ELEMENT_THEORY":"SGP4","FILE":"3191412","MEAN_MOTION_DDOT":"0.0000000000000","TIME_SYSTEM":"UTC","INCLINATION":"53.0549","APOAPSIS":"548.092","OBJECT_NAME":"STARLINK-2022","ECCENTRICITY":"0.00012690","MEAN_MOTION":"15.06400113","GP_ID":"188436332","PERIAPSIS":"546.334","OBJECT_TYPE":"PAYLOAD","OBJECT_ID":"2021-012Z","LAUNCH_DATE":"2021-02-16","MEAN_ANOMALY":"273.1947"},{"BSTAR":"0.00012364000000","PERIOD":"95.592","DECAY_DATE":null,"REF_FRAME":"TEME","NORAD_CAT_ID":"47644","CENTER_NAME":"EARTH","RCS_SIZE":"LARGE","EPHEMERIS_TYPE":"0","SITE":"AFETR","TLE_LINE2":"2 47644  53.0560  18.3204 0001327  91.5452 268.5689 15.06398189 40045","ARG_OF_PERICENTER":"91.5452","MEAN_MOTION_DOT":"0.00001561","COUNTRY_CODE":"US","TLE_LINE1":"1 47644U 21012AA  21302.70490855  .00001561  00000-0  12364-3 0  9999","CLASSIFICATION_TYPE":"U","EPOCH":"2021-10-29T16:55:04.098720","SEMIMAJOR_AXIS":"6925.354","ELEMENT_SET_NO":"999","REV_AT_EPOCH":"4004","RA_OF_ASC_NODE":"18.3204","OBJECT_ID":"2021-012AA","LAUNCH_DATE":"2021-02-16","MEAN_ANOMALY":"268.5689","MEAN_MOTION":"15.06398189","OBJECT_TYPE":"PAYLOAD","GP_ID":"188467331","PERIAPSIS":"546.300","MEAN_MOTION_DDOT":"0.0000000000000","TIME_SYSTEM":"UTC","FILE":"3191844","MEAN_ELEMENT_THEORY":"SGP4","ECCENTRICITY":"0.00013270","OBJECT_NAME":"STARLINK-2026","INCLINATION":"53.0560","APOAPSIS":"548.138"},{"BSTAR":"-0.00001051200000","DECAY_DATE":null,"PERIOD":"95.592","REF_FRAME":"TEME","RCS_SIZE":"LARGE","NORAD_CAT_ID":"47645","CENTER_NAME":"EARTH","TLE_LINE2":"2 47645  53.0514 348.6247 0005946 359.9945   0.1043 15.06396075 40428","SITE":"AFETR","EPHEMERIS_TYPE":"0","COUNTRY_CODE":"US","TLE_LINE1":"1 47645U 21012AB  21302.63669904 -.00000440  00000-0 -10512-4 0  9996","ARG_OF_PERICENTER":"359.9945","MEAN_MOTION_DOT":"-0.00000440","CLASSIFICATION_TYPE":"U","EPOCH":"2021-10-29T15:16:50.797056","SEMIMAJOR_AXIS":"6925.361","REV_AT_EPOCH":"4042","ELEMENT_SET_NO":"999","RA_OF_ASC_NODE":"348.6247","MEAN_ANOMALY":"0.1043","LAUNCH_DATE":"2021-02-16","OBJECT_ID":"2021-012AB","OBJECT_TYPE":"PAYLOAD","PERIAPSIS":"543.108","GP_ID":"188468077","MEAN_MOTION":"15.06396075","TIME_SYSTEM":"UTC","MEAN_MOTION_DDOT":"0.0000000000000","MEAN_ELEMENT_THEORY":"SGP4","FILE":"3191844","ECCENTRICITY":"0.00059460","OBJECT_NAME":"STARLINK-2027","APOAPSIS":"551.343","INCLINATION":"53.0514"},{"REV_AT_EPOCH":"4088","SEMIMAJOR_AXIS":"6925.346","ELEMENT_SET_NO":"999","EPOCH":"2021-10-29T10:10:59.042208","CLASSIFICATION_TYPE":"U","RA_OF_ASC_NODE":"314.5681","TLE_LINE2":"2 47646  53.0553 314.5681 0001193  83.2010 276.9115 15.06400713 40884","SITE":"AFETR","EPHEMERIS_TYPE":"0","COUNTRY_CODE":"US","TLE_LINE1":"1 47646U 21012AC  21302.42429447  .00001372  00000-0  11097-3 0  9991","MEAN_MOTION_DOT":"0.00001372","ARG_OF_PERICENTER":"83.2010","REF_FRAME":"TEME","RCS_SIZE":"LARGE","CENTER_NAME":"EARTH","NORAD_CAT_ID":"47646","BSTAR":"0.00011097000000","DECAY_DATE":null,"PERIOD":"95.592","OBJECT_NAME":"STARLINK-2028","ECCENTRICITY":"0.00011930","APOAPSIS":"548.038","INCLINATION":"53.0553","TIME_SYSTEM":"UTC","MEAN_MOTION_DDOT":"0.0000000000000","FILE":"3191412","MEAN_ELEMENT_THEORY":"SGP4","OBJECT_ID":"2021-012AC","LAUNCH_DATE":"2021-02-16","MEAN_ANOMALY":"276.9115","GP_ID":"188435581","PERIAPSIS":"546.385","OBJECT_TYPE":"PAYLOAD","MEAN_MOTION":"15.06400713"},{"PERIOD":"95.592","DECAY_DATE":null,"BSTAR":"0.00004977600000","CENTER_NAME":"EARTH","NORAD_CAT_ID":"47647","RCS_SIZE":"LARGE","REF_FRAME":"TEME","MEAN_MOTION_DOT":"0.00000460","ARG_OF_PERICENTER":"96.7632","TLE_LINE1":"1 47647U 21012AD  21302.71597236  .00000460  00000-0  49776-4 0  9999","COUNTRY_CODE":"US","EPHEMERIS_TYPE":"0","SITE":"AFETR","TLE_LINE2":"2 47647  53.0571  18.2650 0001293  96.7632 263.3504 15.06399806 40049","RA_OF_ASC_NODE":"18.2650","SEMIMAJOR_AXIS":"6925.349","ELEMENT_SET_NO":"999","REV_AT_EPOCH":"4004","CLASSIFICATION_TYPE":"U","EPOCH":"2021-10-29T17:11:00.011904","MEAN_MOTION":"15.06399806","GP_ID":"188469077","PERIAPSIS":"546.319","OBJECT_TYPE":"PAYLOAD","OBJECT_ID":"2021-012AD","LAUNCH_DATE":"2021-02-16","MEAN_ANOMALY":"263.3504","MEAN_ELEMENT_THEORY":"SGP4","FILE":"3191844","MEAN_MOTION_DDOT":"0.0000000000000","TIME_SYSTEM":"UTC","INCLINATION":"53.0571","APOAPSIS":"548.110","ECCENTRICITY":"0.00012930","OBJECT_NAME":"STARLINK-2030"},{"RCS_SIZE":"MEDIUM","NORAD_CAT_ID":"47648","CENTER_NAME":"EARTH","REF_FRAME":"TEME","DECAY_DATE":null,"PERIOD":"95.589","BSTAR":"-0.00062292000000","RA_OF_ASC_NODE":"358.5993","CLASSIFICATION_TYPE":"U","EPOCH":"2021-10-29T15:22:09.288192","ELEMENT_SET_NO":"999","SEMIMAJOR_AXIS":"6925.217","REV_AT_EPOCH":"4031","TLE_LINE1":"1 47648U 21012AE  21302.64038528 -.00009559  00000-0 -62292-3 0  9993","COUNTRY_CODE":"US","ARG_OF_PERICENTER":"111.4703","MEAN_MOTION_DOT":"-0.00009559","TLE_LINE2":"2 47648  53.0571 358.5993 0002307 111.4703 248.6532 15.06442880 40319","EPHEMERIS_TYPE":"0","SITE":"AFETR","OBJECT_TYPE":"PAYLOAD","GP_ID":"188467831","PERIAPSIS":"545.484","MEAN_MOTION":"15.06442880","MEAN_ANOMALY":"248.6532","LAUNCH_DATE":"2021-02-16","OBJECT_ID":"2021-012AE","APOAPSIS":"548.680","INCLINATION":"53.0571","OBJECT_NAME":"STARLINK-2031","ECCENTRICITY":"0.00023070","FILE":"3191844","MEAN_ELEMENT_THEORY":"SGP4","TIME_SYSTEM":"UTC","MEAN_MOTION_DDOT":"0.0000000000000"},{"OBJECT_TYPE":"PAYLOAD","GP_ID":"188467578","PERIAPSIS":"546.241","MEAN_MOTION":"15.06401209","LAUNCH_DATE":"2021-02-16","OBJECT_ID":"2021-012AF","MEAN_ANOMALY":"281.6682","MEAN_ELEMENT_THEORY":"SGP4","FILE":"3191844","TIME_SYSTEM":"UTC","MEAN_MOTION_DDOT":"0.0000000000000","APOAPSIS":"548.179","INCLINATION":"53.0561","OBJECT_NAME":"STARLINK-2032","ECCENTRICITY":"0.00013990","DECAY_DATE":null,"PERIOD":"95.592","BSTAR":"-0.00002567300000","RCS_SIZE":"LARGE","NORAD_CAT_ID":"47649","CENTER_NAME":"EARTH","REF_FRAME":"TEME","TLE_LINE1":"1 47649U 21012AF  21302.64409363 -.00000664  00000-0 -25673-4 0  9994","COUNTRY_CODE":"US","ARG_OF_PERICENTER":"78.4464","MEAN_MOTION_DOT":"-0.00000664","TLE_LINE2":"2 47649  53.0561 358.5944 0001399  78.4464 281.6682 15.06401209 40314","EPHEMERIS_TYPE":"0","SITE":"AFETR","RA_OF_ASC_NODE":"358.5944","EPOCH":"2021-10-29T15:27:29.689632","CLASSIFICATION_TYPE":"U","SEMIMAJOR_AXIS":"6925.345","REV_AT_EPOCH":"4031","ELEMENT_SET_NO":"999"},{"MEAN_ANOMALY":"279.6928","LAUNCH_DATE":"2021-02-16","OBJECT_ID":"2021-012AG","MEAN_MOTION":"15.06403311","OBJECT_TYPE":"PAYLOAD","PERIAPSIS":"546.546","GP_ID":"188468333","MEAN_MOTION_DDOT":"0.0000000000000","TIME_SYSTEM":"UTC","MEAN_ELEMENT_THEORY":"SGP4","FILE":"3191844","ECCENTRICITY":"0.00009500","OBJECT_NAME":"STARLINK-2033","INCLINATION":"53.0549","APOAPSIS":"547.861","BSTAR":"0.00013901000000","PERIOD":"95.592","DECAY_DATE":null,"REF_FRAME":"TEME","NORAD_CAT_ID":"47650","CENTER_NAME":"EARTH","RCS_SIZE":"LARGE","SITE":"AFETR","EPHEMERIS_TYPE":"0","TLE_LINE2":"2 47650  53.0549 358.6623 0000950  80.4169 279.6928 15.06403311 40297","MEAN_MOTION_DOT":"0.00001790","ARG_OF_PERICENTER":"80.4169","COUNTRY_CODE":"US","TLE_LINE1":"1 47650U 21012AG  21302.62934761  .00001790  00000-0  13901-3 0  9998","CLASSIFICATION_TYPE":"U","EPOCH":"2021-10-29T15:06:15.633504","SEMIMAJOR_AXIS":"6925.338","REV_AT_EPOCH":"4029","ELEMENT_SET_NO":"999","RA_OF_ASC_NODE":"358.6623"},{"OBJECT_ID":"2021-012AH","LAUNCH_DATE":"2021-02-16","MEAN_ANOMALY":"276.8512","MEAN_MOTION":"15.06398365","GP_ID":"188468578","PERIAPSIS":"546.546","OBJECT_TYPE":"PAYLOAD","MEAN_MOTION_DDOT":"0.0000000000000","TIME_SYSTEM":"UTC","FILE":"3191844","MEAN_ELEMENT_THEORY":"SGP4","ECCENTRICITY":"0.00009710","OBJECT_NAME":"STARLINK-2035","INCLINATION":"53.0555","APOAPSIS":"547.891","BSTAR":"0.00014409000000","PERIOD":"95.592","DECAY_DATE":null,"REF_FRAME":"TEME","CENTER_NAME":"EARTH","NORAD_CAT_ID":"47651","RCS_SIZE":"LARGE","SITE":"AFETR","EPHEMERIS_TYPE":"0","TLE_LINE2":"2 47651  53.0555  18.2109 0000971  83.2587 276.8512 15.06398365 40044","MEAN_MOTION_DOT":"0.00001865","ARG_OF_PERICENTER":"83.2587","COUNTRY_CODE":"US","TLE_LINE1":"1 47651U 21012AH  21302.72977554  .00001865  00000-0  14409-3 0  9994","ELEMENT_SET_NO":"999","SEMIMAJOR_AXIS":"6925.354","REV_AT_EPOCH":"4004","CLASSIFICATION_TYPE":"U","EPOCH":"2021-10-29T17:30:52.606656","RA_OF_ASC_NODE":"18.2109"},{"OBJECT_TYPE":"PAYLOAD","GP_ID":"188436584","PERIAPSIS":"546.518","MEAN_MOTION":"15.06397783","LAUNCH_DATE":"2021-02-16","OBJECT_ID":"2021-012AJ","MEAN_ANOMALY":"273.2077","MEAN_ELEMENT_THEORY":"SGP4","FILE":"3191412","TIME_SYSTEM":"UTC","MEAN_MOTION_DDOT":"0.0000000000000","APOAPSIS":"547.923","INCLINATION":"53.0569","ECCENTRICITY":"0.00010140","OBJECT_NAME":"STARLINK-2036","DECAY_DATE":null,"PERIOD":"95.592","BSTAR":"0.00007703900000","RCS_SIZE":"LARGE","NORAD_CAT_ID":"47652","CENTER_NAME":"EARTH","REF_FRAME":"TEME","TLE_LINE1":"1 47652U 21012AJ  21302.49112596  .00000866  00000-0  77039-4 0  9995","COUNTRY_CODE":"US","MEAN_MOTION_DOT":"0.00000866","ARG_OF_PERICENTER":"86.9028","TLE_LINE2":"2 47652  53.0569  19.2736 0001014  86.9028 273.2077 15.06397783 40002","SITE":"AFETR","EPHEMERIS_TYPE":"0","RA_OF_ASC_NODE":"19.2736","EPOCH":"2021-10-29T11:47:13.282944","CLASSIFICATION_TYPE":"U","REV_AT_EPOCH":"4000","SEMIMAJOR_AXIS":"6925.355","ELEMENT_SET_NO":"999"}];
